NORAD_CAT_ID,OBJECT_NAME,OBJECT_TYPE,EPOCH,MEAN_MOTION,ECCENTRICITY,INCLINATION,RA_OF_ASC_NODE,ARG_OF_PERICENTER,MEAN_ANOMALY,BSTAR,MEAN_MOTION_DOT,MEAN_MOTION_DDOT,TLE_LINE0,TLE_LINE1,TLE_LINE2,SEMIMAJOR_AXIS,PERIOD,APOGEE,PERIGEE,DECAYED
55640.0,STARLINK-5069,PAYLOAD,2024-08-04 10:01:21,14.98329573,0.0003413,69.9988,212.529,266.2448,93.8321,8.4117e-05,9.11e-06,0.0,0 STARLINK-5069,1 55640U 23021N   24217.41761537  .00000911  00000-0  84117-4 0  9994,2 55640  69.9988 212.5290 0003413 266.2448  93.8321 14.98329573 81573,6950.194,96.107,574.431,569.687,0.0
55640.0,STARLINK-5069,PAYLOAD,2024-08-04 22:50:26,14.98332655,0.0003596,69.9987,211.1821,270.0837,89.991,5.0331e-05,5.08e-06,0.0,0 STARLINK-5069,1 55640U 23021N   24217.95169350  .00000508  00000-0  50331-4 0  9991,2 55640  69.9987 211.1821 0003596 270.0837  89.9910 14.98332655 81658,6950.185,96.107,574.549,569.55,0.0
55640.0,STARLINK-5069,PAYLOAD,2024-08-05 05:14:58,14.9833283,0.0003596,69.9986,210.5088,269.9873,90.0874,4.9319e-05,4.95e-06,0.0,0 STARLINK-5069,1 55640U 23021N   24218.21873316  .00000495  00000-0  49319-4 0  9994,2 55640  69.9986 210.5088 0003596 269.9873  90.0874 14.98332830 81390,6950.184,96.107,574.548,569.55,0.0
55640.0,STARLINK-5069,PAYLOAD,2024-08-05 16:27:55,14.98329163,0.0003518,69.9989,209.3308,269.4759,90.5997,1.143e-05,4.3e-07,0.0,0 STARLINK-5069,1 55640U 23021N   24218.68605543  .00000043  00000-0  11430-4 0  9992,2 55640  69.9989 209.3308 0003518 269.4759  90.5997 14.98329163 81763,6950.195,96.107,574.506,569.615,0.0
55640.0,STARLINK-5069,PAYLOAD,2024-08-06 05:16:59,14.98326788,0.0003458,69.9991,207.9845,268.5065,91.5698,-2.1439e-05,-3.49e-06,0.0,0 STARLINK-5069,1 55640U 23021N   24219.22013851 -.00000349  00000-0 -21439-4 0  9999,2 55640  69.9991 207.9845 0003458 268.5065  91.5698 14.98326788 81544,6950.203,96.107,574.471,569.664,0.0
55640.0,STARLINK-5069,PAYLOAD,2024-08-06 10:05:24,14.98326265,0.0003477,69.9991,207.4797,267.7008,92.3753,-2.8346e-05,-4.31e-06,0.0,0 STARLINK-5069,1 55640U 23021N   24219.42041937 -.00000431  00000-0 -28346-4 0  9993,2 55640  69.9991 207.4797 0003477 267.7008  92.3753 14.98326265 81871,6950.204,96.107,574.486,569.653,0.0
55640.0,STARLINK-5069,PAYLOAD,2024-08-07 03:42:52,14.98333124,0.000347,69.9992,205.6282,266.6553,93.4209,1.8942e-05,1.33e-06,0.0,0 STARLINK-5069,1 55640U 23021N   24220.15477372  .00000133  00000-0  18942-4 0  9999,2 55640  69.9992 205.6282 0003470 266.6553  93.4209 14.98333124 81686,6950.183,96.107,574.46,569.637,0.0
55640.0,STARLINK-5069,PAYLOAD,2024-08-08 08:33:17,14.98330319,0.0003474,69.9992,202.5986,266.6881,93.3881,0.00010522,1.163e-05,0.0,0 STARLINK-5069,1 55640U 23021N   24221.35645340  .00001163  00000-0  10522-3 0  9993,2 55640  69.9992 202.5986 0003474 266.6881  93.3881 14.98330319 82163,6950.192,96.107,574.471,569.642,0.0
55640.0,STARLINK-5069,PAYLOAD,2024-08-08 22:58:30,14.983329,0.0003367,69.9995,201.084,265.9014,94.176,2.3205e-05,1.84e-06,0.0,0 STARLINK-5069,1 55640U 23021N   24221.95729362  .00000184  00000-0  23205-4 0  9991,2 55640  69.9995 201.0840 0003367 265.9014  94.1760 14.98332900 82253,6950.184,96.107,574.389,569.709,0.0
55640.0,STARLINK-5069,PAYLOAD,2024-08-09 05:23:02,14.98304376,0.0003172,69.9997,200.4106,266.2835,93.7962,0.00053469,6.288e-05,0.0,0 STARLINK-5069,1 55640U 23021N   24222.22433854  .00006288  00000-0  53469-3 0  9995,2 55640  69.9997 200.4106 0003172 266.2835  93.7962 14.98304376 81997,6950.272,96.109,574.342,569.933,0.0
55640.0,STARLINK-5069,PAYLOAD,2024-08-09 08:35:18,14.98326303,0.0003258,69.9996,200.0739,264.751,95.3277,0.00016636,1.892e-05,0.0,0 STARLINK-5069,1 55640U 23021N   24222.35785425  .00001892  00000-0  16636-3 0  9994,2 55640  69.9996 200.0739 0003258 264.7510  95.3277 14.98326303 82017,6950.204,96.107,574.334,569.805,0.0
55640.0,STARLINK-5069,PAYLOAD,2024-08-09 21:24:22,14.98332858,0.0003273,69.9997,198.7278,265.4498,94.6287,4.746e-05,4.73e-06,0.0,0 STARLINK-5069,1 55640U 23021N   24222.89193204  .00000473  00000-0  47460-4 0  9995,2 55640  69.9997 198.7278 0003273 265.4498  94.6287 14.98332858 82395,6950.184,96.107,574.324,569.774,0.0
55640.0,STARLINK-5069,PAYLOAD,2024-08-10 08:37:18,14.98335869,0.0003219,69.9998,197.5487,269.0518,91.0273,0.00012331,1.379e-05,0.0,0 STARLINK-5069,1 55640U 23021N   24223.35924734  .00001379  00000-0  12331-3 0  9991,2 55640  69.9998 197.5487 0003219 269.0518  91.0273 14.98335869 82164,6950.175,96.107,574.277,569.802,0.0
55640.0,STARLINK-5069,PAYLOAD,2024-08-10 23:02:31,14.98330359,0.0002796,70.0008,196.0341,252.8616,107.2237,9.9121e-05,1.09e-05,0.0,0 STARLINK-5069,1 55640U 23021N   24223.96008966  .00001090  00000-0  99121-4 0  9991,2 55640  70.0008 196.0341 0002796 252.8616 107.2237 14.98330359 82552,6950.192,96.107,574.0,570.114,0.0
55640.0,STARLINK-5069,PAYLOAD,2024-08-11 07:03:12,14.98331611,0.0003043,70.0009,195.1934,263.9811,96.1001,8.3056e-05,8.98e-06,0.0,0 STARLINK-5069,1 55640U 23021N   24224.29389071  .00000898  00000-0  83056-4 0  9992,2 55640  70.0009 195.1934 0003043 263.9811  96.1001 14.98331611 82307,6950.188,96.107,574.168,569.938,0.0
55640.0,STARLINK-5069,PAYLOAD,2024-08-11 23:04:32,14.98332195,0.0002762,70.001,193.5099,262.9854,97.0991,7.7879e-05,8.36e-06,0.0,0 STARLINK-5069,1 55640U 23021N   24224.96148892  .00000836  00000-0  77879-4 0  9998,2 55640  70.0010 193.5099 0002762 262.9854  97.0991 14.98332195 82706,6950.186,96.107,573.971,570.131,0.0
55640.0,STARLINK-5069,PAYLOAD,2024-08-12 05:29:04,14.98344793,0.0002873,70.0005,192.8369,264.1425,95.9407,-0.0001345,-1.698e-05,0.0,0 STARLINK-5069,1 55640U 23021N   24225.22852432 -.00001698  00000-0 -13450-3 0  9993,2 55640  70.0005 192.8369 0002873 264.1425  95.9407 14.98344793 82440,6950.147,96.106,574.009,570.015,0.0
55640.0,STARLINK-5069,PAYLOAD,2024-08-12 08:41:20,14.98337546,0.0002815,70.0004,192.4983,257.3762,102.7083,8.6432e-05,9.39e-06,0.0,0 STARLINK-5069,1 55640U 23021N   24225.36204337  .00000939  00000-0  86432-4 0  9999,2 55640  70.0004 192.4983 0002815 257.3762 102.7083 14.98337546 82761,6950.17,96.107,573.991,570.078,0.0
55640.0,STARLINK-5069,PAYLOAD,2024-08-12 23:06:33,14.98333263,0.0002853,70.0006,190.9861,265.0251,95.0583,1.2527e-05,5.7e-07,0.0,0 STARLINK-5069,1 55640U 23021N   24225.96288678  .00000057  00000-0  12527-4 0  9990,2 55640  70.0006 190.9861 0002853 265.0251  95.0583 14.98333263 82853,6950.183,96.107,574.031,570.065,0.0
55640.0,STARLINK-5069,PAYLOAD,2024-08-13 05:31:05,14.98333336,0.0003024,69.9995,190.3118,265.31,94.7713,-1.3094e-05,-2.49e-06,0.0,0 STARLINK-5069,1 55640U 23021N   24226.22992556 -.00000249  00000-0 -13094-4 0  9992,2 55640  69.9995 190.3118 0003024 265.3100  94.7713 14.98333336 82596,6950.183,96.107,574.149,569.946,0.0
55640.0,STARLINK-5069,PAYLOAD,2024-08-13 07:07:13,14.98333837,0.0003008,69.9996,190.1436,265.4437,94.6379,-5.4355e-06,-1.58e-06,0.0,0 STARLINK-5069,1 55640U 23021N   24226.29668492 -.00000158  00000-0 -54355-5 0  9993,2 55640  69.9996 190.1436 0003008 265.4437  94.6379 14.98333837 82902,6950.181,96.107,574.137,569.955,0.0
55640.0,STARLINK-5069,PAYLOAD,2024-08-13 23:08:37,14.98300583,0.0002843,70.0005,188.4592,265.9372,94.1462,-0.00027096,-3.322e-05,0.0,0 STARLINK-5069,1 55640U 23021N   24226.96431794 -.00003322  00000-0 -27096-3 0  9996,2 55640  70.0005 188.4592 0002843 265.9372  94.1462 14.98300583 83000,6950.284,96.109,574.125,570.173,0.0
55640.0,STARLINK-5069,PAYLOAD,2024-08-14 03:57:01,14.98302043,0.0003058,69.9998,187.9547,268.4891,91.5918,-0.00021994,-2.714e-05,0.0,0 STARLINK-5069,1 55640U 23021N   24227.16459928 -.00002714  00000-0 -21994-3 0  9993,2 55640  69.9998 187.9547 0003058 268.4891  91.5918 14.98302043 82734,6950.279,96.109,574.27,570.019,0.0
55640.0,STARLINK-5069,PAYLOAD,2024-08-14 07:09:17,14.9830243,0.0002873,69.9998,187.6166,265.9236,94.1594,-0.00026216,-3.217e-05,0.0,0 STARLINK-5069,1 55640U 23021N   24227.29812210 -.00003217  00000-0 -26216-3 0  9995,2 55640  69.9998 187.6166 0002873 265.9236  94.1594 14.98302430 83052,6950.278,96.109,574.14,570.146,0.0
55640.0,STARLINK-5069,PAYLOAD,2024-08-14 15:09:57,14.98315717,0.0003217,70.0001,186.7758,257.7155,102.3644,-8.6702e-06,-1.96e-06,0.0,0 STARLINK-5069,1 55640U 23021N   24227.63190982 -.00000196  00000-0 -86702-5 0  9999,2 55640  70.0001 186.7758 0003217 257.7155 102.3644 14.98315717 82801,6950.237,96.108,574.338,569.866,0.0
55640.0,STARLINK-5069,PAYLOAD,2024-08-14 21:34:29,14.9831882,0.0003468,69.9993,186.1036,271.381,88.6951,4.3204e-05,4.22e-06,0.0,0 STARLINK-5069,1 55640U 23021N   24227.89894776  .00000422  00000-0  43204-4 0  9998,2 55640  69.9993 186.1036 0003468 271.3810  88.6951 14.98318820 83142,6950.227,96.108,574.503,569.682,0.0
55640.0,STARLINK-5069,PAYLOAD,2024-08-15 03:59:00,14.98332532,0.0003156,69.9989,185.4297,272.248,87.8318,0.00016438,1.869e-05,0.0,0 STARLINK-5069,1 55640U 23021N   24228.16597844  .00001869  00000-0  16438-3 0  9999,2 55640  69.9989 185.4297 0003156 272.2480  87.8318 14.98332532 82889,6950.185,96.107,574.244,569.857,0.0
55640.0,STARLINK-5069,PAYLOAD,2024-08-15 07:11:16,14.983362,0.0003031,69.9994,185.0925,272.4976,87.5836,0.00019698,2.258e-05,0.0,0 STARLINK-5069,1 55640U 23021N   24228.29949579  .00002258  00000-0  19698-3 0  9993,2 55640  69.9994 185.0925 0003031 272.4976  87.5836 14.98336200 83208,6950.174,96.107,574.145,569.932,0.0
55640.0,STARLINK-5069,PAYLOAD,2024-08-15 21:36:28,14.9832689,0.0003034,69.9996,183.5776,275.548,84.5332,0.00048786,5.732e-05,0.0,0 STARLINK-5069,1 55640U 23021N   24228.90033543  .00005732  00000-0  48786-3 0  9996,2 55640  69.9996 183.5776 0003034 275.5480  84.5332 14.98326890 83295,6950.203,96.107,574.176,569.959,0.0
55640.0,STARLINK-5069,PAYLOAD,2024-08-16 04:01:01,14.98334158,0.0003069,69.9993,182.9048,274.2902,85.7907,0.00060189,7.097e-05,0.0,0 STARLINK-5069,1 55640U 23021N   24229.16737310  .00007097  00000-0  60189-3 0  9995,2 55640  69.9993 182.9048 0003069 274.2902  85.7907 14.98334158 83039,6950.18,96.107,574.178,569.912,0.0
